[ {"name": "STARLINK-5826", "line1": "1 55782U 23028AT  26204.15864008 -.00000111  00000+0 -15043-5 0  9990", "line2": "2 55782  69.9983 223.0694 0004002 266.6769  93.3933 14.98331312187312"}, {"name": "STARLINK-5825", "line1": "1 55783U 23028AU  26204.15847420  .00000105  00000+0  16599-4 0  9997", "line2": "2 55783  69.9979 223.0678 0003713 267.1429  92.9305 14.98331615187311"}, {"name": "STARLINK-5797", "line1": "1 55784U 23028AV  26204.25002315 -.00030101  00000+0 -25238-2 0  9994", "line2": "2 55784  70.0009 222.7349 0003740 267.0683 315.7644 14.98358398  5612"}, {"name": "STARLINK-5818", "line1": "1 55785U 23028AW  26204.15429976  .00000524  00000+0  51705-4 0  9994", "line2": "2 55785  69.9986 223.0521 0003331 270.1272  89.9505 14.98332913187314"}, {"name": "STARLINK-5823", "line1": "1 55786U 23028AX  26204.20661838 -.01897971  00000+0 -19243+0 0  9995", "line2": "2 55786  69.9828 222.8406 0010165 289.7223  70.2837 14.94209368187307"}, {"name": "STARLINK-5811", "line1": "1 55787U 23028AY  26204.15012707 -.00000280  00000+0 -15684-4 0  9993", "line2": "2 55787  69.9988 223.0368 0003754 266.0941  93.9789 14.98330362187318"}, {"name": "STARLINK-5804", "line1": "1 55788U 23028AZ  26204.14595271 -.00000038  00000+0  46211-5 0  9996", "line2": "2 55788  69.9988 223.0220 0003606 266.9890  93.0856 14.98330211187313"}, {"name": "STARLINK-5815", "line1": "1 55789U 23028BA  26204.32118744 -.00000250  00000+0 -13106-4 0  9996", "line2": "2 55789  69.9982 222.4290 0004101 270.0455  90.0234 14.98330044187346"}, {"name": "STARLINK-5813", "line1": "1 55790U 23028BB  26204.19202578 -.00001378  00000+0 -10779-3 0  9996", "line2": "2 55790  69.9984 222.7831 0003141 266.4067  93.6733 14.98315344187322"}, {"name": "STARLINK-5807", "line1": "1 55791U 23028BC  26204.33788406  .00000495  00000+0  49304-4 0  9996", "line2": "2 55791  69.9989 222.4886 0004245 264.3931  95.6744 14.98325362187345"}, {"name": "STARLINK-5856", "line1": "1 55914U 23037A   26204.28063480 -.00000119  00000+0 -22010-5 0  9996", "line2": "2 55914  70.0006 322.7354 0002904 270.1840  89.8986 14.98330393184488"}, {"name": "STARLINK-5859", "line1": "1 55915U 23037B   26204.33069811  .00000033  00000+0  10554-4 0  9999", "line2": "2 55915  70.0003 322.5076 0003221 266.8087  93.2703 14.98327174184482"}, {"name": "STARLINK-5796", "line1": "1 55916U 23037C   26203.74237943 -.00000072  00000+0  17556-5 0  9991", "line2": "2 55916  70.0005 324.0666 0003342 266.7632  93.3145 14.98330323183712"}, {"name": "STARLINK-5867", "line1": "1 55918U 23037E   26203.33765082 -.00000724  00000+0 -52873-4 0  9993", "line2": "2 55918  70.0007 325.0612 0003195 268.6487  91.4306 14.98325530183658"}, {"name": "STARLINK-5871", "line1": "1 55919U 23037F   26204.33086279 -.00000961  00000+0 -72803-4 0  9997", "line2": "2 55919  70.0010 322.5091 0003129 266.4411  93.6390 14.98326026183801"}, {"name": "STARLINK-5862", "line1": "1 55920U 23037G   26204.26788832 -.00000300  00000+0 -17366-4 0  9995", "line2": "2 55920  70.0006 302.8119 0002636 270.4611  89.6246 14.98330769184286"}, {"name": "STARLINK-5861", "line1": "1 55921U 23037H   26204.31400022 -.00000665  00000+0 -47975-4 0  9997", "line2": "2 55921  70.0004 322.4503 0003251 266.7395  93.3392 14.98327069183801"}, {"name": "STARLINK-5863", "line1": "1 55922U 23037J   26204.31817757 -.00001192  00000+0 -92115-4 0  9997", "line2": "2 55922  70.0008 322.4653 0003026 268.1522  91.9290 14.98323598183804"}, {"name": "STARLINK-5854", "line1": "1 55923U 23037K   26204.32235067 -.00000924  00000+0 -69680-4 0  9990", "line2": "2 55923  69.9974 322.4776 0003170 268.7996  91.2800 14.98335140183807"}, {"name": "STARLINK-5849", "line1": "1 55924U 23037L   26204.26372772  .00001690  00000+0  14944-3 0  9990", "line2": "2 55924  69.9997 302.7968 0003737 268.2046  91.8685 14.98321813184289"}, {"name": "STARLINK-5922", "line1": "1 55925U 23037M   26204.30982248 -.00000087  00000+0  53574-6 0  9996", "line2": "2 55925  70.0007 322.4351 0003264 265.1082  94.9704 14.98331444183805"}, {"name": "STARLINK-5921", "line1": "1 55926U 23037N   26204.25536480 -.00000566  00000+0 -39644-4 0  9997", "line2": "2 55926  70.0038 302.7681 0003228 269.1248  90.9541 14.98329501184284"}, {"name": "STARLINK-5919", "line1": "1 55927U 23037P   26203.63404306  .00000866  00000+0  80379-4 0  9992", "line2": "2 55927  70.0004 324.0896 0003109 268.3632  91.7171 14.98335960183697"}, {"name": "STARLINK-5930", "line1": "1 55928U 23037Q   26204.29730531 -.00000386  00000+0 -24523-4 0  9996", "line2": "2 55928  70.0004 322.3902 0003071 268.6559  91.4248 14.98329027183808"}, {"name": "STARLINK-5896", "line1": "1 55930U 23037S   26204.22614603  .00004661  00000+0  39814-3 0  9999", "line2": "2 55930  70.0015 302.6688 0003218 273.8773  86.2018 14.98334079184287"}, {"name": "STARLINK-5897", "line1": "1 55931U 23037T   26204.29312892 -.00000228  00000+0 -11287-4 0  9994", "line2": "2 55931  69.9989 322.3749 0003480 267.7437  92.3323 14.98332002183800"}, {"name": "STARLINK-5848", "line1": "1 55932U 23037U   26203.31629805  .00000104  00000+0  16500-4 0  9996", "line2": "2 55932  69.9990 284.8243 0003254 262.9072  97.1717 14.98333112184641"}, {"name": "STARLINK-5852", "line1": "1 55933U 23037V   26204.25118889 -.00000410  00000+0 -26517-4 0  9997", "line2": "2 55933  69.9989 302.7560 0003820 265.3574  94.7149 14.98330917184287"}, {"name": "STARLINK-5927", "line1": "1 55934U 23037W   26204.02602919  .00000303  00000+0  33219-4 0  9991", "line2": "2 55934  69.9984 303.1702 0003372 268.7365  91.3408 14.98332012184259"}, {"name": "STARLINK-5920", "line1": "1 55935U 23037X   26204.24701846 -.00000609  00000+0 -43263-4 0  9996", "line2": "2 55935  70.0000 302.7381 0003372 269.4828  90.5945 14.98326232184289"}, {"name": "STARLINK-5882", "line1": "1 55936U 23037Y   26203.65427378 -.00000108  00000+0 -12804-5 0  9998", "line2": "2 55936  69.9987 283.9962 0003314 269.7861  90.2918 14.98331303184699"}, {"name": "STARLINK-5913", "line1": "1 55937U 23037Z   26204.24284239 -.00000475  00000+0 -32003-4 0  9991", "line2": "2 55937  69.9997 302.7236 0003328 267.6755  92.4023 14.98330697184280"}, {"name": "STARLINK-5909", "line1": "1 55938U 23037AA  26204.23866840 -.00000280  00000+0 -15629-4 0  9994", "line2": "2 55938  69.9996 302.7085 0003172 270.0326  90.0469 14.98330829184286"}, {"name": "STARLINK-5918", "line1": "1 55939U 23037AB  26203.69624595  .00001396  00000+0  12476-3 0  9996", "line2": "2 55939  70.0001 304.0264 0003344 265.5347  94.5430 14.98334482184202"}, {"name": "STARLINK-5864", "line1": "1 55940U 23037AC  26204.23449377 -.00000142  00000+0 -40770-5 0  9992", "line2": "2 55940  70.0000 302.6952 0003471 269.2320  90.8442 14.98330542184287"}, {"name": "STARLINK-5914", "line1": "1 55941U 23037AD  26204.25953850 -.00000141  00000+0 -40062-5 0  9994", "line2": "2 55941  69.9977 302.7843 0002997 269.6463  90.4353 14.98331818184286"}, {"name": "STARLINK-5917", "line1": "1 55942U 23037AE  26204.27620969 -.00000148  00000+0 -45786-5 0  9994", "line2": "2 55942  70.0006 302.4393 0003406 268.3177  91.7592 14.98329771184299"}, {"name": "STARLINK-5932", "line1": "1 55943U 23037AF  26204.28455743 -.00000072  00000+0  17272-5 0  9996", "line2": "2 55943  69.9999 302.4590 0003398 268.8309  91.2460 14.98328847184291"}, {"name": "STARLINK-5926", "line1": "1 55944U 23037AG  26204.28038398 -.00000059  00000+0  28549-5 0  9994", "line2": "2 55944  70.0002 302.4535 0003200 268.3562  91.7230 14.98329652184292"}, {"name": "STARLINK-5925", "line1": "1 55945U 23037AH  26204.22215276 -.00001048  00000+0 -80037-4 0  9990", "line2": "2 55945  70.0012 302.6518 0003589 268.2817  91.7931 14.98317130184284"}, {"name": "STARLINK-5857", "line1": "1 55946U 23037AJ  26204.28873230 -.00000124  00000+0 -25863-5 0  9998", "line2": "2 55946  70.0000 302.4817 0003379 269.5454  90.5318 14.98329047184286"}, {"name": "STARLINK-5900", "line1": "1 55948U 23037AL  26204.23427240  .00000249  00000+0  28635-4 0  9996", "line2": "2 55948  69.9994 282.8144 0003271 269.6005  90.4779 14.98327499184778"}, {"name": "STARLINK-5899", "line1": "1 55949U 23037AM  26203.64177656  .00000456  00000+0  46017-4 0  9998", "line2": "2 55949  69.9994 284.3593 0003430 269.6518  90.4248 14.98332611184683"}, {"name": "STARLINK-5911", "line1": "1 55950U 23037AN  26203.96305523 -.00000194  00000+0 -84272-5 0  9998", "line2": "2 55950  69.9986 283.4733 0003649 266.6415  93.4326 14.98331238184737"}, {"name": "STARLINK-5908", "line1": "1 55951U 23037AP  26204.27203479 -.00000263  00000+0 -14278-4 0  9996", "line2": "2 55951  69.9991 302.4237 0003477 266.6123  93.4638 14.98329088184297"}, {"name": "STARLINK-5893", "line1": "1 55952U 23037AQ  26204.23443568 -.00000076  00000+0  14523-5 0  9993", "line2": "2 55952  69.9993 282.8170 0003546 268.7615  91.3138 14.98330553184777"}, {"name": "STARLINK-5892", "line1": "1 55954U 23037AS  26203.67096896  .00000143  00000+0  19748-4 0  9997", "line2": "2 55954  69.9992 284.0570 0003372 269.6034  90.4739 14.98332452184696"}, {"name": "STARLINK-5878", "line1": "1 55955U 23037AT  26203.95470708  .00000227  00000+0  26797-4 0  9992", "line2": "2 55955  69.9992 283.4432 0003390 268.6635  91.4136 14.98329634184738"}, {"name": "STARLINK-5883", "line1": "1 55956U 23037AU  26204.19670206 -.00000399  00000+0 -25632-4 0  9994", "line2": "2 55956  69.9997 282.6820 0003334 268.3682  91.7095 14.98330346184776"}, {"name": "STARLINK-5884", "line1": "1 55957U 23037AV  26203.95888252 -.00000290  00000+0 -16485-4 0  9996", "line2": "2 55957  69.9990 283.4580 0003622 267.1154  92.9590 14.98331083184731"}, {"name": "STARLINK-5928", "line1": "1 55958U 23037AW  26204.21758446  .00000206  00000+0  25035-4 0  9994", "line2": "2 55958  69.9979 282.7557 0003885 270.3433  89.7281 14.98333343184778"}, {"name": "STARLINK-5929", "line1": "1 55959U 23037AX  26204.21340075 -.00000167  00000+0 -62141-5 0  9998", "line2": "2 55959  69.9989 282.7393 0003536 270.7987  89.2767 14.98328139184770"}]